start=new Date('2022-07-05T00:00:00.000Z').valueOf();
sats=[{"GP_ID":"207414798","EPHEMERIS_TYPE":"0","MEAN_MOTION_DDOT":"0.0000000000000","CENTER_NAME":"EARTH","MEAN_ELEMENT_THEORY":"SGP4","OBJECT_TYPE":"PAYLOAD","PERIOD":"95.593","TLE_LINE2":"2 45191  53.0560 319.5565 0001527  78.1315 281.9845 15.06381514129491","CLASSIFICATION_TYPE":"U","BSTAR":"-0.00015396000000","ELEMENT_SET_NO":"999","LAUNCH_DATE":"2020-02-17","MEAN_MOTION_DOT":"-0.00002573","FILE":"3507746","COUNTRY_CODE":"US","MEAN_ANOMALY":"281.9845","REV_AT_EPOCH":"12949","OBJECT_NAME":"STARLINK-1236","SEMIMAJOR_AXIS":"6925.405","EPOCH":"2022-07-04T19:20:35.909952","TIME_SYSTEM":"UTC","RA_OF_ASC_NODE":"319.5565","PERIAPSIS":"546.213","APOAPSIS":"548.328","RCS_SIZE":"LARGE","ARG_OF_PERICENTER":"78.1315","INCLINATION":"53.0560","DECAY_DATE":null,"NORAD_CAT_ID":"45191","OBJECT_ID":"2020-012P","TLE_LINE1":"1 45191U 20012P   22185.80597118 -.00002573  00000-0 -15396-3 0  9998","MEAN_MOTION":"15.06381514","SITE":"AFETR","REF_FRAME":"TEME","ECCENTRICITY":"0.00015270"},{"SITE":"AFETR","REF_FRAME":"TEME","OBJECT_ID":"2020-012Q","TLE_LINE1":"1 45192U 20012Q   22185.84650954 -.00002608  00000-0 -15631-3 0  9992","MEAN_MOTION":"15.06385680","ECCENTRICITY":"0.00015230","APOAPSIS":"548.312","RCS_SIZE":"LARGE","ARG_OF_PERICENTER":"83.0437","INCLINATION":"53.0571","TIME_SYSTEM":"UTC","PERIAPSIS":"546.203","RA_OF_ASC_NODE":"319.3551","NORAD_CAT_ID":"45192","DECAY_DATE":null,"COUNTRY_CODE":"US","MEAN_MOTION_DOT":"-0.00002608","FILE":"3507746","ELEMENT_SET_NO":"999","TLE_LINE2":"2 45192  53.0571 319.3551 0001523  83.0437 277.0725 15.06385680132296","PERIOD":"95.593","CLASSIFICATION_TYPE":"U","BSTAR":"-0.00015631000000","LAUNCH_DATE":"2020-02-17","EPOCH":"2022-07-04T20:18:58.424256","REV_AT_EPOCH":"13229","MEAN_ANOMALY":"277.0725","SEMIMAJOR_AXIS":"6925.392","OBJECT_NAME":"STARLINK-1237","MEAN_MOTION_DDOT":"0.0000000000000","GP_ID":"207415040","EPHEMERIS_TYPE":"0","MEAN_ELEMENT_THEORY":"SGP4","OBJECT_TYPE":"PAYLOAD","CENTER_NAME":"EARTH"},{"SITE":"AFETR","REF_FRAME":"TEME","OBJECT_ID":"2020-012R","TLE_LINE1":"1 45193U 20012R   22185.83544076 -.00001590  00000-0 -87894-4 0  9999","MEAN_MOTION":"15.06394414","ECCENTRICITY":"0.00014380","APOAPSIS":"548.227","RCS_SIZE":"LARGE","ARG_OF_PERICENTER":"70.4886","INCLINATION":"53.0564","TIME_SYSTEM":"UTC","RA_OF_ASC_NODE":"319.4165","PERIAPSIS":"546.235","NORAD_CAT_ID":"45193","DECAY_DATE":null,"MEAN_MOTION_DOT":"-0.00001590","FILE":"3507746","COUNTRY_CODE":"US","BSTAR":"-0.00008789400000","TLE_LINE2":"2 45193  53.0564 319.4165 0001438  70.4886 289.6258 15.06394414132233","PERIOD":"95.592","CLASSIFICATION_TYPE":"U","ELEMENT_SET_NO":"999","LAUNCH_DATE":"2020-02-17","EPOCH":"2022-07-04T20:03:02.081664","MEAN_ANOMALY":"289.6258","REV_AT_EPOCH":"13223","OBJECT_NAME":"STARLINK-1239","SEMIMAJOR_AXIS":"6925.366","MEAN_MOTION_DDOT":"0.0000000000000","GP_ID":"207413800","EPHEMERIS_TYPE":"0","MEAN_ELEMENT_THEORY":"SGP4","OBJECT_TYPE":"PAYLOAD","CENTER_NAME":"EARTH"},{"CENTER_NAME":"EARTH","MEAN_ELEMENT_THEORY":"SGP4","OBJECT_TYPE":"PAYLOAD","GP_ID":"207414549","EPHEMERIS_TYPE":"0","MEAN_MOTION_DDOT":"0.0000000000000","MEAN_ANOMALY":"289.7983","REV_AT_EPOCH":"13216","OBJECT_NAME":"STARLINK-1240","SEMIMAJOR_AXIS":"6925.355","EPOCH":"2022-07-04T16:57:15.722208","PERIOD":"95.592","TLE_LINE2":"2 45194  53.0553 320.0060 0001463  70.3164 289.7983 15.06397886132164","BSTAR":"0.00004337500000","CLASSIFICATION_TYPE":"U","ELEMENT_SET_NO":"999","LAUNCH_DATE":"2020-02-17","MEAN_MOTION_DOT":"0.00000365","FILE":"3507746","COUNTRY_CODE":"US","DECAY_DATE":null,"NORAD_CAT_ID":"45194","TIME_SYSTEM":"UTC","RA_OF_ASC_NODE":"320.0060","PERIAPSIS":"546.207","RCS_SIZE":"LARGE","ARG_OF_PERICENTER":"70.3164","APOAPSIS":"548.233","INCLINATION":"53.0553","ECCENTRICITY":"0.00014630","OBJECT_ID":"2020-012S","TLE_LINE1":"1 45194U 20012S   22185.70643197  .00000365  00000-0  43375-4 0  9993","MEAN_MOTION":"15.06397886","SITE":"AFETR","REF_FRAME":"TEME"},{"COUNTRY_CODE":"US","FILE":"3507746","MEAN_MOTION_DOT":"0.00012230","LAUNCH_DATE":"2020-02-17","ELEMENT_SET_NO":"999","CLASSIFICATION_TYPE":"U","TLE_LINE2":"2 45195  53.0527 318.2881 0002213  95.3259 264.7984 15.10648774132289","PERIOD":"95.323","BSTAR":"0.00074730000000","EPOCH":"2022-07-04T15:29:08.551968","SEMIMAJOR_AXIS":"6912.357","OBJECT_NAME":"STARLINK-1241","REV_AT_EPOCH":"13228","MEAN_ANOMALY":"264.7984","MEAN_MOTION_DDOT":"0.0000000000000","EPHEMERIS_TYPE":"0","GP_ID":"207415298","OBJECT_TYPE":"PAYLOAD","MEAN_ELEMENT_THEORY":"SGP4","CENTER_NAME":"EARTH","REF_FRAME":"TEME","SITE":"AFETR","MEAN_MOTION":"15.10648774","OBJECT_ID":"2020-012T","TLE_LINE1":"1 45195U 20012T   22185.64523787  .00012230  00000-0  74730-3 0  9991","ECCENTRICITY":"0.00022130","INCLINATION":"53.0527","APOAPSIS":"535.752","RCS_SIZE":"LARGE","ARG_OF_PERICENTER":"95.3259","PERIAPSIS":"532.693","RA_OF_ASC_NODE":"318.2881","TIME_SYSTEM":"UTC","NORAD_CAT_ID":"45195","DECAY_DATE":null},{"CENTER_NAME":"EARTH","MEAN_ELEMENT_THEORY":"SGP4","OBJECT_TYPE":"PAYLOAD","GP_ID":"207415540","EPHEMERIS_TYPE":"0","MEAN_MOTION_DDOT":"0.0000000000000","REV_AT_EPOCH":"13233","MEAN_ANOMALY":"276.4646","SEMIMAJOR_AXIS":"6925.379","OBJECT_NAME":"STARLINK-1244","EPOCH":"2022-07-04T19:41:48.073056","ELEMENT_SET_NO":"999","TLE_LINE2":"2 45196  53.0554 319.4889 0001414  83.6504 276.4646 15.06390155132339","BSTAR":"-0.00009671500000","PERIOD":"95.593","CLASSIFICATION_TYPE":"U","LAUNCH_DATE":"2020-02-17","COUNTRY_CODE":"US","MEAN_MOTION_DOT":"-0.00001721","FILE":"3507746","DECAY_DATE":null,"NORAD_CAT_ID":"45196","TIME_SYSTEM":"UTC","RA_OF_ASC_NODE":"319.4889","PERIAPSIS":"546.264","RCS_SIZE":"LARGE","APOAPSIS":"548.223","ARG_OF_PERICENTER":"83.6504","INCLINATION":"53.0554","ECCENTRICITY":"0.00014140","OBJECT_ID":"2020-012U","TLE_LINE1":"1 45196U 20012U   22185.82069529 -.00001721  00000-0 -96715-4 0  9994","MEAN_MOTION":"15.06390155","SITE":"AFETR","REF_FRAME":"TEME"},{"EPOCH":"2022-07-04T19:25:54.616224","REV_AT_EPOCH":"13225","MEAN_ANOMALY":"293.1757","SEMIMAJOR_AXIS":"6925.412","OBJECT_NAME":"STARLINK-1269","COUNTRY_CODE":"US","MEAN_MOTION_DOT":"-0.00002740","FILE":"3507746","ELEMENT_SET_NO":"999","TLE_LINE2":"2 45197  53.0563 319.5406 0001723  66.9414 293.1757 15.06379214132256","PERIOD":"95.593","BSTAR":"-0.00016522000000","CLASSIFICATION_TYPE":"U","LAUNCH_DATE":"2020-02-17","MEAN_ELEMENT_THEORY":"SGP4","OBJECT_TYPE":"PAYLOAD","CENTER_NAME":"EARTH","MEAN_MOTION_DDOT":"0.0000000000000","GP_ID":"207414300","EPHEMERIS_TYPE":"0","ECCENTRICITY":"0.00017230","SITE":"AFETR","REF_FRAME":"TEME","TLE_LINE1":"1 45197U 20012V   22185.80965991 -.00002740  00000-0 -16522-3 0  9990","OBJECT_ID":"2020-012V","MEAN_MOTION":"15.06379214","NORAD_CAT_ID":"45197","DECAY_DATE":null,"RCS_SIZE":"LARGE","APOAPSIS":"548.471","ARG_OF_PERICENTER":"66.9414","INCLINATION":"53.0563","TIME_SYSTEM":"UTC","RA_OF_ASC_NODE":"319.5406","PERIAPSIS":"546.084"},{"DECAY_DATE":null,"NORAD_CAT_ID":"45198","TIME_SYSTEM":"UTC","RA_OF_ASC_NODE":"299.8652","PERIAPSIS":"546.294","RCS_SIZE":"LARGE","APOAPSIS":"548.209","ARG_OF_PERICENTER":"68.3405","INCLINATION":"53.0569","ECCENTRICITY":"0.00013830","OBJECT_ID":"2020-012W","TLE_LINE1":"1 45198U 20012W   22185.73408619 -.00000866  00000-0 -39271-4 0  9996","MEAN_MOTION":"15.06387645","SITE":"AFETR","REF_FRAME":"TEME","CENTER_NAME":"EARTH","MEAN_ELEMENT_THEORY":"SGP4","OBJECT_TYPE":"PAYLOAD","GP_ID":"207414050","EPHEMERIS_TYPE":"0","MEAN_MOTION_DDOT":"0.0000000000000","MEAN_ANOMALY":"291.7731","REV_AT_EPOCH":"13249","OBJECT_NAME":"STARLINK-1154","SEMIMAJOR_AXIS":"6925.386","EPOCH":"2022-07-04T17:37:05.046816","TLE_LINE2":"2 45198  53.0569 299.8652 0001383  68.3405 291.7731 15.06387645132493","BSTAR":"-0.00003927100000","PERIOD":"95.593","CLASSIFICATION_TYPE":"U","ELEMENT_SET_NO":"999","LAUNCH_DATE":"2020-02-17","MEAN_MOTION_DOT":"-0.00000866","FILE":"3507746","COUNTRY_CODE":"US"},{"MEAN_ELEMENT_THEORY":"SGP4","OBJECT_TYPE":"PAYLOAD","CENTER_NAME":"EARTH","MEAN_MOTION_DDOT":"0.0000000000000","GP_ID":"207414799","EPHEMERIS_TYPE":"0","EPOCH":"2022-07-04T14:31:18.419520","MEAN_ANOMALY":"273.8812","REV_AT_EPOCH":"13253","OBJECT_NAME":"STARLINK-1197","SEMIMAJOR_AXIS":"6925.369","MEAN_MOTION_DOT":"-0.00002375","FILE":"3507746","COUNTRY_CODE":"US","PERIOD":"95.593","TLE_LINE2":"2 45199  53.0566 300.4422 0001218  86.2316 273.8812 15.06393280132530","BSTAR":"-0.00014062000000","CLASSIFICATION_TYPE":"U","ELEMENT_SET_NO":"999","LAUNCH_DATE":"2020-02-17","NORAD_CAT_ID":"45199","DECAY_DATE":null,"APOAPSIS":"548.078","RCS_SIZE":"LARGE","ARG_OF_PERICENTER":"86.2316","INCLINATION":"53.0566","TIME_SYSTEM":"UTC","PERIAPSIS":"546.391","RA_OF_ASC_NODE":"300.4422","ECCENTRICITY":"0.00012180","SITE":"AFETR","REF_FRAME":"TEME","OBJECT_ID":"2020-012X","TLE_LINE1":"1 45199U 20012X   22185.60507430 -.00002375  00000-0 -14062-3 0  9991","MEAN_MOTION":"15.06393280"},{"CENTER_NAME":"EARTH","OBJECT_TYPE":"PAYLOAD","MEAN_ELEMENT_THEORY":"SGP4","EPHEMERIS_TYPE":"0","GP_ID":"207415041","MEAN_MOTION_DDOT":"0.0000000000000","OBJECT_NAME":"STARLINK-1199","SEMIMAJOR_AXIS":"6925.419","MEAN_ANOMALY":"282.1750","REV_AT_EPOCH":"13253","EPOCH":"2022-07-04T14:41:56.118912","LAUNCH_DATE":"2020-02-17","TLE_LINE2":"2 45201  53.0544 300.4061 0001287  77.9383 282.1750 15.06376928132530","BSTAR":"-0.00015556000000","PERIOD":"95.594","CLASSIFICATION_TYPE":"U","ELEMENT_SET_NO":"999","MEAN_MOTION_DOT":"-0.00002596","FILE":"3507746","COUNTRY_CODE":"US","DECAY_DATE":null,"NORAD_CAT_ID":"45201","PERIAPSIS":"546.393","RA_OF_ASC_NODE":"300.4061","TIME_SYSTEM":"UTC","INCLINATION":"53.0544","APOAPSIS":"548.176","RCS_SIZE":"LARGE","ARG_OF_PERICENTER":"77.9383","ECCENTRICITY":"0.00012870","MEAN_MOTION":"15.06376928","OBJECT_ID":"2020-012Z","TLE_LINE1":"1 45201U 20012Z   22185.61245508 -.00002596  00000-0 -15556-3 0  9995","REF_FRAME":"TEME","SITE":"AFETR"}];
